STARLINK-3135           
1 49424U 21104S   26078.55961665 -.00000073  00000+0  13480-4 0  9997
2 49424  53.2148 184.8146 0001253  89.4027 270.7109 15.08839600240115
STARLINK-3139           
1 49425U 21104T   26078.54586432  .00002984  00000+0  20560-3 0  9990
2 49425  53.2147 184.8860 0001458  84.9949 275.1210 15.08823253240128
STARLINK-3114           
1 49426U 21104U   26078.55227650  .00001583  00000+0  11756-3 0  9997
2 49426  53.2276 184.8471 0000788  77.3750 282.7330 15.08823860240111
STARLINK-3131           
1 49427U 21104V   26078.27721964 -.00001492  00000+0 -75671-4 0  9992
2 49427  53.2149 186.0900 0001283  93.5812 266.5327 15.08847293240080
STARLINK-3121           
1 49428U 21104W   26078.58905154 -.00002004  00000+0 -10783-3 0  9994
2 49428  53.2182 184.5929 0001457  96.5058 263.6100 15.08843754240131
STARLINK-3138           
1 49430U 21104Y   26078.69676730  .00000296  00000+0  36711-4 0  9993
2 49430  53.2148 184.4779 0001217  91.0695 269.0437 15.08838664240147
STARLINK-3153           
1 49431U 21104Z   26078.58171885 -.00000043  00000+0  15378-4 0  9990
2 49431  53.2177 184.8964 0000908  87.2909 272.8187 15.08838103240121
STARLINK-3158           
1 49432U 21104AA  26078.63509302 -.00003016  00000+0 -17141-3 0  9999
2 49432  53.2164 174.4739 0000895  95.3610 264.7485 15.08854563240272
STARLINK-3079           
1 49433U 21104AB  26078.50257900 -.00000470  00000+0 -11435-4 0  9992
2 49433  53.2166 165.0705 0001138  92.4803 267.6319 15.08844413241482
STARLINK-3134           
1 49434U 21104AC  26078.68107746  .00000227  00000+0  32336-4 0  9995
2 49434  53.2163 184.4279 0001005  79.7025 280.4081 15.08845203241227
STARLINK-3117           
1 49435U 21104AD  26078.63969575  .00000320  00000+0  38189-4 0  9993
2 49435  53.2166 164.4539 0000943  89.0359 271.0741 15.08837094240410
STARLINK-3049           
1 49436U 21104AE  26078.44001962 -.00000491  00000+0 -12768-4 0  9996
2 49436  53.2178 165.3506 0001196  84.9938 275.1191 15.08836728240389
STARLINK-3130           
1 49437U 21104AF  26078.49889615  .00000116  00000+0  25364-4 0  9999
2 49437  53.2169 165.0872 0000833  88.1065 272.0023 15.08840591240391
STARLINK-3044           
1 49438U 21104AG  26078.42257060  .00001821  00000+0  13246-3 0  9995
2 49438  53.2156 165.3625 0001341  88.9899 271.1247 15.08840306240386
STARLINK-3105           
1 49440U 21104AJ  26078.62401961  .00000043  00000+0  20782-4 0  9990
2 49440  53.2172 164.5264 0001055  90.1803 269.9310 15.08843867240414
STARLINK-3128           
1 49441U 21104AK  26078.53937816  .00001889  00000+0  13671-3 0  9991
2 49441  53.2166 164.9024 0001128  74.4541 285.6575 15.08840570240406
