[{"OBJECT_NAME":"STARLINK-3135","OBJECT_ID":"2021-104S","EPOCH":"2026-03-19T13:25:50.878560","MEAN_MOTION":15.088396,"ECCENTRICITY":0.00012532,"INCLINATION":53.2148,"RA_OF_ASC_NODE":184.8146,"ARG_OF_PERICENTER":89.4027,"MEAN_ANOMALY":270.7109,"EPHEMERIS_TYPE":0,"CLASSIFICATION_TYPE":"U","NORAD_CAT_ID":49424,"ELEMENT_SET_NO":999,"REV_AT_EPOCH":24011,"BSTAR":1.3480191e-5,"MEAN_MOTION_DOT":-7.3e-7,"MEAN_MOTION_DDOT":0},{"OBJECT_NAME":"STARLINK-3139","OBJECT_ID":"2021-104T","EPOCH":"2026-03-19T13:06:02.677248","MEAN_MOTION":15.08823253,"ECCENTRICITY":0.00014588,"INCLINATION":53.2147,"RA_OF_ASC_NODE":184.886,"ARG_OF_PERICENTER":84.9949,"MEAN_ANOMALY":275.121,"EPHEMERIS_TYPE":0,"CLASSIFICATION_TYPE":"U","NORAD_CAT_ID":49425,"ELEMENT_SET_NO":999,"REV_AT_EPOCH":24012,"BSTAR":0.00020559686,"MEAN_MOTION_DOT":2.984e-5,"MEAN_MOTION_DDOT":0},{"OBJECT_NAME":"STARLINK-3114","OBJECT_ID":"2021-104U","EPOCH":"2026-03-19T13:15:16.689600","MEAN_MOTION":15.0882386,"ECCENTRICITY":7.886e-5,"INCLINATION":53.2276,"RA_OF_ASC_NODE":184.8471,"ARG_OF_PERICENTER":77.375,"MEAN_ANOMALY":282.733,"EPHEMERIS_TYPE":0,"CLASSIFICATION_TYPE":"U","NORAD_CAT_ID":49426,"ELEMENT_SET_NO":999,"REV_AT_EPOCH":24011,"BSTAR":0.00011755861,"MEAN_MOTION_DOT":1.583e-5,"MEAN_MOTION_DDOT":0},{"OBJECT_NAME":"STARLINK-3131","OBJECT_ID":"2021-104V","EPOCH":"2026-03-19T06:39:11.776896","MEAN_MOTION":15.08847293,"ECCENTRICITY":0.00012837,"INCLINATION":53.2149,"RA_OF_ASC_NODE":186.09,"ARG_OF_PERICENTER":93.5812,"MEAN_ANOMALY":266.5327,"EPHEMERIS_TYPE":0,"CLASSIFICATION_TYPE":"U","NORAD_CAT_ID":49427,"ELEMENT_SET_NO":999,"REV_AT_EPOCH":24008,"BSTAR":-7.567051e-5,"MEAN_MOTION_DOT":-1.492e-5,"MEAN_MOTION_DDOT":0},{"OBJECT_NAME":"STARLINK-3121","OBJECT_ID":"2021-104W","EPOCH":"2026-03-19T14:08:14.053056","MEAN_MOTION":15.08843754,"ECCENTRICITY":0.00014574,"INCLINATION":53.2182,"RA_OF_ASC_NODE":184.5929,"ARG_OF_PERICENTER":96.5058,"MEAN_ANOMALY":263.61,"EPHEMERIS_TYPE":0,"CLASSIFICATION_TYPE":"U","NORAD_CAT_ID":49428,"ELEMENT_SET_NO":999,"REV_AT_EPOCH":24013,"BSTAR":-0.00010782951,"MEAN_MOTION_DOT":-2.004e-5,"MEAN_MOTION_DDOT":0},{"OBJECT_NAME":"STARLINK-3138","OBJECT_ID":"2021-104Y","EPOCH":"2026-03-19T16:43:20.694720","MEAN_MOTION":15.08838664,"ECCENTRICITY":0.00012177,"INCLINATION":53.2148,"RA_OF_ASC_NODE":184.4779,"ARG_OF_PERICENTER":91.0695,"MEAN_ANOMALY":269.0437,"EPHEMERIS_TYPE":0,"CLASSIFICATION_TYPE":"U","NORAD_CAT_ID":49430,"ELEMENT_SET_NO":999,"REV_AT_EPOCH":24014,"BSTAR":3.6710656e-5,"MEAN_MOTION_DOT":2.96e-6,"MEAN_MOTION_DDOT":0},{"OBJECT_NAME":"STARLINK-3153","OBJECT_ID":"2021-104Z","EPOCH":"2026-03-19T13:57:40.508640","MEAN_MOTION":15.08838103,"ECCENTRICITY":9.08e-5,"INCLINATION":53.2177,"RA_OF_ASC_NODE":184.8964,"ARG_OF_PERICENTER":87.2909,"MEAN_ANOMALY":272.8187,"EPHEMERIS_TYPE":0,"CLASSIFICATION_TYPE":"U","NORAD_CAT_ID":49431,"ELEMENT_SET_NO":999,"REV_AT_EPOCH":24012,"BSTAR":1.5378342e-5,"MEAN_MOTION_DOT":-4.3e-7,"MEAN_MOTION_DDOT":0},{"OBJECT_NAME":"STARLINK-3158","OBJECT_ID":"2021-104AA","EPOCH":"2026-03-19T15:14:32.036928","MEAN_MOTION":15.08854563,"ECCENTRICITY":8.955e-5,"INCLINATION":53.2164,"RA_OF_ASC_NODE":174.4739,"ARG_OF_PERICENTER":95.361,"MEAN_ANOMALY":264.7485,"EPHEMERIS_TYPE":0,"CLASSIFICATION_TYPE":"U","NORAD_CAT_ID":49432,"ELEMENT_SET_NO":999,"REV_AT_EPOCH":24027,"BSTAR":-0.00017141398,"MEAN_MOTION_DOT":-3.016e-5,"MEAN_MOTION_DDOT":0},{"OBJECT_NAME":"STARLINK-3079","OBJECT_ID":"2021-104AB","EPOCH":"2026-03-19T12:03:42.825600","MEAN_MOTION":15.08844413,"ECCENTRICITY":0.00011382,"INCLINATION":53.2166,"RA_OF_ASC_NODE":165.0705,"ARG_OF_PERICENTER":92.4803,"MEAN_ANOMALY":267.6319,"EPHEMERIS_TYPE":0,"CLASSIFICATION_TYPE":"U","NORAD_CAT_ID":49433,"ELEMENT_SET_NO":999,"REV_AT_EPOCH":24148,"BSTAR":-1.1435389e-5,"MEAN_MOTION_DOT":-4.7e-6,"MEAN_MOTION_DDOT":0},{"OBJECT_NAME":"STARLINK-3134","OBJECT_ID":"2021-104AC","EPOCH":"2026-03-19T16:20:45.092544","MEAN_MOTION":15.08845203,"ECCENTRICITY":0.00010056,"INCLINATION":53.2163,"RA_OF_ASC_NODE":184.4279,"ARG_OF_PERICENTER":79.7025,"MEAN_ANOMALY":280.4081,"EPHEMERIS_TYPE":0,"CLASSIFICATION_TYPE":"U","NORAD_CAT_ID":49434,"ELEMENT_SET_NO":999,"REV_AT_EPOCH":24122,"BSTAR":3.2335867e-5,"MEAN_MOTION_DOT":2.27e-6,"MEAN_MOTION_DDOT":0},{"OBJECT_NAME":"STARLINK-3117","OBJECT_ID":"2021-104AD","EPOCH":"2026-03-19T15:21:09.712800","MEAN_MOTION":15.08837094,"ECCENTRICITY":9.43e-5,"INCLINATION":53.2166,"RA_OF_ASC_NODE":164.4539,"ARG_OF_PERICENTER":89.0359,"MEAN_ANOMALY":271.0741,"EPHEMERIS_TYPE":0,"CLASSIFICATION_TYPE":"U","NORAD_CAT_ID":49435,"ELEMENT_SET_NO":999,"REV_AT_EPOCH":24041,"BSTAR":3.8188786e-5,"MEAN_MOTION_DOT":3.2e-6,"MEAN_MOTION_DDOT":0},{"OBJECT_NAME":"STARLINK-3049","OBJECT_ID":"2021-104AE","EPOCH":"2026-03-19T10:33:37.695168","MEAN_MOTION":15.08836728,"ECCENTRICITY":0.00011961,"INCLINATION":53.2178,"RA_OF_ASC_NODE":165.3506,"ARG_OF_PERICENTER":84.9938,"MEAN_ANOMALY":275.1191,"EPHEMERIS_TYPE":0,"CLASSIFICATION_TYPE":"U","NORAD_CAT_ID":49436,"ELEMENT_SET_NO":999,"REV_AT_EPOCH":24038,"BSTAR":-1.2768201e-5,"MEAN_MOTION_DOT":-4.91e-6,"MEAN_MOTION_DDOT":0},{"OBJECT_NAME":"STARLINK-3130","OBJECT_ID":"2021-104AF","EPOCH":"2026-03-19T11:58:24.627360","MEAN_MOTION":15.08840591,"ECCENTRICITY":8.334e-5,"INCLINATION":53.2169,"RA_OF_ASC_NODE":165.0872,"ARG_OF_PERICENTER":88.1065,"MEAN_ANOMALY":272.0023,"EPHEMERIS_TYPE":0,"CLASSIFICATION_TYPE":"U","NORAD_CAT_ID":49437,"ELEMENT_SET_NO":999,"REV_AT_EPOCH":24039,"BSTAR":2.5363926e-5,"MEAN_MOTION_DOT":1.16e-6,"MEAN_MOTION_DDOT":0},{"OBJECT_NAME":"STARLINK-3044","OBJECT_ID":"2021-104AG","EPOCH":"2026-03-19T10:08:30.099840","MEAN_MOTION":15.08840306,"ECCENTRICITY":0.00013411,"INCLINATION":53.2156,"RA_OF_ASC_NODE":165.3625,"ARG_OF_PERICENTER":88.9899,"MEAN_ANOMALY":271.1247,"EPHEMERIS_TYPE":0,"CLASSIFICATION_TYPE":"U","NORAD_CAT_ID":49438,"ELEMENT_SET_NO":999,"REV_AT_EPOCH":24038,"BSTAR":0.0001324622,"MEAN_MOTION_DOT":1.821e-5,"MEAN_MOTION_DDOT":0},{"OBJECT_NAME":"STARLINK-3105","OBJECT_ID":"2021-104AJ","EPOCH":"2026-03-19T14:58:35.294304","MEAN_MOTION":15.08843867,"ECCENTRICITY":0.00010553,"INCLINATION":53.2172,"RA_OF_ASC_NODE":164.5264,"ARG_OF_PERICENTER":90.1803,"MEAN_ANOMALY":269.931,"EPHEMERIS_TYPE":0,"CLASSIFICATION_TYPE":"U","NORAD_CAT_ID":49440,"ELEMENT_SET_NO":999,"REV_AT_EPOCH":24041,"BSTAR":2.0782235e-5,"MEAN_MOTION_DOT":4.3e-7,"MEAN_MOTION_DDOT":0},{"OBJECT_NAME":"STARLINK-3128","OBJECT_ID":"2021-104AK","EPOCH":"2026-03-19T12:56:42.273024","MEAN_MOTION":15.0884057,"ECCENTRICITY":0.0001128,"INCLINATION":53.2166,"RA_OF_ASC_NODE":164.9024,"ARG_OF_PERICENTER":74.4541,"MEAN_ANOMALY":285.6575,"EPHEMERIS_TYPE":0,"CLASSIFICATION_TYPE":"U","NORAD_CAT_ID":49441,"ELEMENT_SET_NO":999,"REV_AT_EPOCH":24040,"BSTAR":0.0001367053,"MEAN_MOTION_DOT":1.889e-5,"MEAN_MOTION_DDOT":0}]
